GLOBALSTAR M063         
1 26081U 00008A   24255.56242160 -.00000127  00000+0 -64759-3 0  9994
2 26081  51.9947 125.3635 0004928 128.6150 259.3745 11.86157051124518
GLOBALSTAR M062         
1 26082U 00008B   24255.62166928 -.00000042  00000+0  40403-3 0  9994
2 26082  51.9836 194.9470 0006582 239.2360 292.4705 12.43445502461967
GLOBALSTAR M060         
1 26083U 00008C   24255.40254553 -.00000052  00000+0  38612-3 0  9993
2 26083  52.0005 116.1594 0002568 287.1147 244.2148 12.17641041118407
GLOBALSTAR M064         
1 26084U 00008D   24255.60472068 -.00000054  00000+0  42101-3 0  9999
2 26084  52.0006 227.3651 0001167 249.9095 110.1612 11.88522659133976
GLOBALSTAR M065         
1 31571U 07020A   24255.60539168 -.00000025  00000+0  44043-3 0  9997
2 31571  51.9924 354.1642 0010349  52.7170  52.5070 12.61974893798231
GLOBALSTAR M069         
1 31573U 07020C   24255.59868427 -.00000032  00000+0  41334-3 0  9998
2 31573  51.9960 310.0201 0000448 185.9742 292.0430 12.58764425799368
GLOBALSTAR M072         
1 31574U 07020D   24255.56923556 -.00000064  00000+0  21992-3 0  9994
2 31574  52.0098  46.0082 0001159  99.6837 335.7545 12.62263571797633
GLOBALSTAR M071         
1 31576U 07020F   24255.42721843 -.00000032  00000+0  40052-3 0  9999
2 31576  52.0083 315.6590 0000852 209.5918 163.2591 12.62288171460533
